NORAD_CAT_ID,OBJECT_NAME,OBJECT_TYPE,EPOCH,MEAN_MOTION,ECCENTRICITY,INCLINATION,RA_OF_ASC_NODE,ARG_OF_PERICENTER,MEAN_ANOMALY,BSTAR,MEAN_MOTION_DOT,MEAN_MOTION_DDOT,TLE_LINE0,TLE_LINE1,TLE_LINE2,SEMIMAJOR_AXIS,PERIOD,APOGEE,PERIGEE,DECAYED
49754.0,STARLINK-3193,PAYLOAD,2022-10-23 16:14:46,15.08863394,0.0003555,53.2155,274.3266,27.4327,332.6852,0.00049739,7.642e-05,0.0,0 STARLINK-3193,1 49754U 21115AG  22296.67692570  .00007642  00000-0  49739-3 0  9996,2 49754  53.2155 274.3266 0003555  27.4327 332.6852 15.08863394 49532,6917.809,95.436,542.133,537.215,0.0
49754.0,STARLINK-3193,PAYLOAD,2022-10-24 04:57:51,15.08855249,0.0003669,53.2159,271.9479,26.2205,333.8973,0.00029827,4.464e-05,0.0,0 STARLINK-3193,1 49754U 21115AG  22297.20684566  .00004464  00000-0  29827-3 0  9997,2 49754  53.2159 271.9479 0003669  26.2205 333.8973 15.08855249 50723,6917.834,95.437,542.237,537.161,0.0
49754.0,STARLINK-3193,PAYLOAD,2022-10-24 06:33:14,15.08849485,0.0003529,53.2158,271.6498,27.8362,332.2818,0.00012547,1.709e-05,0.0,0 STARLINK-3193,1 49754U 21115AG  22297.27308669  .00001709  00000-0  12547-3 0  9991,2 49754  53.2158 271.6498 0003529  27.8362 332.2818 15.08849485 49629,6917.851,95.437,542.158,537.275,0.0
49754.0,STARLINK-3193,PAYLOAD,2022-10-24 20:51:43,15.08826187,0.0003615,53.2163,268.9747,31.0,329.1205,-0.00020235,-3.507e-05,0.0,0 STARLINK-3193,1 49754U 21115AG  22297.86925834 -.00003507  00000-0 -20235-3 0  9998,2 49754  53.2163 268.9747 0003615  31.0000 329.1205 15.08826187 50826,6917.9230000000025,95.438,542.288,537.2869999999998,0.0
49754.0,STARLINK-3193,PAYLOAD,2022-10-25 07:59:26,15.08822601,0.0003538,53.2161,266.8921,27.2469,332.8708,-9.671e-05,-1.827e-05,0.0,0 STARLINK-3193,1 49754U 21115AG  22298.33294576 -.00001827  00000-0 -96710-4 0  9998,2 49754  53.2161 266.8921 0003538  27.2469 332.8708 15.08822601 49784,6917.934,95.439,542.246,537.351,0.0
49754.0,STARLINK-3193,PAYLOAD,2022-10-26 04:39:27,15.08834768,0.0003572,53.2164,263.0266,26.8754,333.2422,0.00041477,6.318e-05,0.0,0 STARLINK-3193,1 49754U 21115AG  22299.19407280  .00006318  00000-0  41477-3 0  9998,2 49754  53.2164 263.0266 0003572  26.8754 333.2422 15.08834768 51023,6917.896,95.438,542.232,537.29,0.0
49754.0,STARLINK-3193,PAYLOAD,2022-10-26 07:50:14,15.08837917,0.0003553999999999,53.2165,262.4316,27.8899,332.2283,0.00058938,9.104e-05,0.0,0 STARLINK-3193,1 49754U 21115AG  22299.32655399  .00009104  00000-0  58938-3 0  9995,2 49754  53.2165 262.4316 0003554  27.8899 332.2283 15.08837917 49934,6917.887,95.438,542.21,537.293,0.0
49754.0,STARLINK-3193,PAYLOAD,2022-10-26 14:11:46,15.08845986,0.0003551,53.2166,261.2422,28.4959,331.6227,0.00064529,9.999e-05,0.0,0 STARLINK-3193,1 49754U 21115AG  22299.59151264  .00009999  00000-0  64529-3 0  9991,2 49754  53.2166 261.2422 0003551  28.4959 331.6227 15.08845986 49971,6917.861999999999,95.437,542.184,537.271,0.0
49754.0,STARLINK-3193,PAYLOAD,2022-10-27 06:05:37,15.08852638,0.0003642,53.2168,258.2685,30.4079,329.7124,0.00026341,3.908e-05,0.0,0 STARLINK-3193,1 49754U 21115AG  22300.25390703  .00003908  00000-0  26341-3 0  9994,2 49754  53.2168 258.2685 0003642  30.4079 329.7124 15.08852638 50076,6917.842,95.437,542.226,537.187,0.0
49754.0,STARLINK-3193,PAYLOAD,2022-10-27 14:02:33,15.0885101,0.0003708999999999,53.2168,256.7818,32.2013,327.9205,9.0675e-05,1.155e-05,0.0,0 STARLINK-3193,1 49754U 21115AG  22300.58510421  .00001155  00000-0  90675-4 0  9995,2 49754  53.2168 256.7818 0003709  32.2013 327.9205 15.08851010 50128,6917.847,95.437,542.278,537.146,0.0
49754.0,STARLINK-3193,PAYLOAD,2022-10-28 04:21:00,15.08857717,0.0003198999999999,53.2163,254.1054,31.6622,328.4562,0.00027399,4.077e-05,0.0,0 STARLINK-3193,1 49754U 21115AG  22301.18125622  .00004077  00000-0  27399-3 0  9995,2 49754  53.2163 254.1054 0003199  31.6622 328.4562 15.08857717 50211,6917.826,95.436,541.904,537.4780000000002,0.0
49754.0,STARLINK-3193,PAYLOAD,2022-10-28 20:14:51,15.08858054,0.0003728,53.216,251.1325,32.9489,327.1734,0.00034119,5.149e-05,0.0,0 STARLINK-3193,1 49754U 21115AG  22301.84365275  .00005149  00000-0  34119-3 0  9997,2 49754  53.2160 251.1325 0003728  32.9489 327.1734 15.08858054 51425,6917.825,95.436,542.269,537.111,0.0
49754.0,STARLINK-3193,PAYLOAD,2022-10-29 04:11:47,15.08850881,0.0003558,53.2162,249.6459,30.4752,329.6446,5.6588e-05,6.12e-06,0.0,0 STARLINK-3193,1 49754U 21115AG  22302.17485189  .00000612  00000-0  56588-4 0  9996,2 49754  53.2162 249.6459 0003558  30.4752 329.6446 15.08850881 50363,6917.847,95.437,542.174,537.251,0.0
49754.0,STARLINK-3193,PAYLOAD,2022-10-29 20:05:38,15.08850691,0.0003508999999999,53.2166,246.672,30.433000000000003,329.6865,2.6355e-05,1.31e-06,0.0,0 STARLINK-3193,1 49754U 21115AG  22302.83725067  .00000131  00000-0  26355-4 0  9996,2 49754  53.2166 246.6720 0003509  30.4330 329.6865 15.08850691 50468,6917.848000000001,95.437,542.14,537.285,0.0
49754.0,STARLINK-3193,PAYLOAD,2022-10-30 04:02:34,15.0884194,0.0003597,53.2164,245.1853,27.7686,332.3497,-3.8496e-05,-9.02e-06,0.0,0 STARLINK-3193,1 49754U 21115AG  22303.16845164 -.00000902  00000-0 -38496-4 0  9991,2 49754  53.2164 245.1853 0003597  27.7686 332.3497 15.08841940 50512,6917.874,95.437,542.2280000000002,537.251,0.0
49754.0,STARLINK-3193,PAYLOAD,2022-10-30 19:56:26,15.08831935,0.0003461999999999,53.2168,242.2116,30.1369,329.9822,-5.6387e-05,-1.186e-05,0.0,0 STARLINK-3193,1 49754U 21115AG  22303.83085901 -.00001186  00000-0 -56387-4 0  9994,2 49754  53.2168 242.2116 0003462  30.1369 329.9822 15.08831935 50611,6917.905,95.438,542.165,537.375,0.0
49754.0,STARLINK-3193,PAYLOAD,2022-10-31 05:28:44,15.08838957,0.0003378,53.2157,240.4271,28.9446,331.1733,0.00013665,1.887e-05,0.0,0 STARLINK-3193,1 49754U 21115AG  22304.22829857  .00001887  00000-0  13665-3 0  9991,2 49754  53.2157 240.4271 0003378  28.9446 331.1733 15.08838957 50671,6917.884,95.438,542.085,537.4119999999998,0.0
49754.0,STARLINK-3193,PAYLOAD,2022-10-31 13:25:40,15.08846057,0.0003378,53.2162,238.94,30.3888,329.7299,0.00032639,4.911e-05,0.0,0 STARLINK-3193,1 49754U 21115AG  22304.55949742  .00004911  00000-0  32639-3 0  9996,2 49754  53.2162 238.9400 0003378  30.3888 329.7299 15.08846057 51839,6917.861999999999,95.437,542.064,537.39,0.0
49754.0,STARLINK-3193,PAYLOAD,2022-11-01 05:19:31,15.08859249,0.0003292,53.2162,235.9656,32.2223,327.897,0.0006942,0.00010783,0.0,0 STARLINK-3193,1 49754U 21115AG  22305.22189359  .00010783  00000-0  69420-3 0  9993,2 49754  53.2162 235.9656 0003292  32.2223 327.8970 15.08859249 50828,6917.821999999999,95.436,541.964,537.409,0.0
49754.0,STARLINK-3193,PAYLOAD,2022-11-01 19:37:58,15.08885357,0.0003337,53.2162,233.2895,33.0901,327.0299,0.00096944,0.00015194,0.0,0 STARLINK-3193,1 49754U 21115AG  22305.81803773  .00015194  00000-0  96944-3 0  9993,2 49754  53.2162 233.2895 0003337  33.0901 327.0299 15.08885357 52025,6917.7419999999975,95.435,541.915,537.298,0.0
49754.0,STARLINK-3193,PAYLOAD,2022-11-02 03:34:54,15.08851241,0.0003327,53.2165,231.803,29.0898,331.0279,-0.00063402,-0.00010369,0.0,0 STARLINK-3193,1 49754U 21115AG  22306.14923620 -.00010369  00000-0 -63402-3 0  9998,2 49754  53.2165 231.8030 0003327  29.0898 331.0279 15.08851241 52075,6917.846,95.437,542.013,537.409,0.0
49754.0,STARLINK-3193,PAYLOAD,2022-11-02 05:10:17,15.08850628,0.0003177999999999,53.2163,231.506,29.8933,330.224,-0.00064212,-0.00010498,0.0,0 STARLINK-3193,1 49754U 21115AG  22306.21547540 -.00010498  00000-0 -64212-3 0  9992,2 49754  53.2163 231.5060 0003178  29.8933 330.2240 15.08850628 50979,6917.848000000001,95.437,541.911,537.514,0.0
49754.0,STARLINK-3193,PAYLOAD,2022-11-02 19:28:45,15.08840603,0.0002964,53.2163,228.8289,28.2171,331.8981,-5.304299999999999e-06,-3.73e-06,0.0,0 STARLINK-3193,1 49754U 21115AG  22306.81163781 -.00000373  00000-0 -53043-5 0  9992,2 49754  53.2163 228.8289 0002964  28.2171 331.8981 15.08840603 51062,6917.879,95.438,541.794,537.693,0.0
49754.0,STARLINK-3193,PAYLOAD,2022-11-03 03:25:41,15.08824616,0.0003223,53.2163,227.3429,18.2105,341.9002,0.0013158,0.00020707,0.0,0 STARLINK-3193,1 49754U 21115AG  22307.14284571  .00020707  00000-0  13158-2 0  9991,2 49754  53.2163 227.3429 0003223  18.2105 341.9002 15.08824616 52228,6917.927,95.439,542.0219999999998,537.563,0.0
49754.0,STARLINK-3193,PAYLOAD,2022-11-03 05:01:05,15.08825963,0.0003212,53.2163,227.0459,18.3141,341.7966,0.0014274,0.00022495,0.0,0 STARLINK-3193,1 49754U 21115AG  22307.20908646  .00022495  00000-0  14274-2 0  9990,2 49754  53.2163 227.0459 0003212  18.3141 341.7966 15.08825963 51128,6917.9230000000025,95.438,542.01,537.566,0.0
49754.0,STARLINK-3193,PAYLOAD,2022-11-04 03:16:28,15.08862688,0.0003086,53.2164,222.883,20.347,339.7644,0.001025,0.00016073,0.0,0 STARLINK-3193,1 49754U 21115AG  22308.13644005  .00016073  00000-0  10250-2 0  9994,2 49754  53.2164 222.8830 0003086  20.3470 339.7644 15.08862688 51262,6917.811,95.436,541.811,537.5409999999998,0.0
49754.0,STARLINK-3193,PAYLOAD,2022-11-05 11:04:12,15.08809649,0.0003115,53.2158,216.9356,23.1177,336.9955,-0.00011631,-2.138e-05,0.0,0 STARLINK-3193,1 49754U 21115AG  22309.46125380 -.00002138  00000-0 -11631-3 0  9995,2 49754  53.2158 216.9356 0003115  23.1177 336.9955 15.08809649 52577,6917.973000000001,95.439,541.993,537.683,0.0
49754.0,STARLINK-3193,PAYLOAD,2022-11-06 04:33:27,15.08834482,0.0003246,53.2159,213.6646,24.5863,335.5283,0.0011764,0.00018482,0.0,0 STARLINK-3193,1 49754U 21115AG  22310.18990645  .00018482  00000-0  11764-2 0  9993,2 49754  53.2159 213.6646 0003246  24.5863 335.5283 15.08834482 52680,6917.897,95.438,542.008,537.5169999999998,0.0
49754.0,STARLINK-3193,PAYLOAD,2022-11-06 10:55:00,15.08835348,0.0003275,53.2164,212.4739,25.5911,334.5243,0.00079846,0.00012441,0.0,0 STARLINK-3193,1 49754U 21115AG  22310.45486876  .00012441  00000-0  79846-3 0  9994,2 49754  53.2164 212.4739 0003275  25.5911 334.5243 15.08835348 51612,6917.895,95.438,542.025,537.494,0.0
